DEKART                  
1 46493U 20068H   26185.25802612  .00015983  00000+0  43276-3 0  9990
2 46493  97.8739 195.7545 0008009 212.2490 147.8265 15.37741848318399
NORBI                   
1 46494U 20068J   26185.27814020  .00032665  00000+0  59914-3 0  9991
2 46494  97.8622 202.7572 0007153 178.5331 181.5941 15.49199237318856
SALSAT                  
1 46495U 20068K   26184.95457312  .00009251  00000+0  32069-3 0  9990
2 46495  97.8853 189.0427 0008159 236.6445 123.4014 15.30040776317924
ICEYE-X6                
1 46497U 20068M   26185.28324166  .00003451  00000+0  25038-3 0  9993
2 46497  98.0969 179.7729 0008080  42.4743 317.7106 15.04613739315806
NETSAT-4                
1 46504U 20068U   26184.32571208  .00018584  00000+0  40376-3 0  9992
2 46504  97.8599 193.8687 0003453 246.2093 113.8792 15.44406430318263
NETSAT-3                
1 46505U 20068V   26184.53877588  .00020356  00000+0  45943-3 0  9991
2 46505  97.8652 192.2952 0002916 273.1126  86.9786 15.43255269318209
NETSAT-1                
1 46506U 20068W   26184.95591468  .00014676  00000+0  43401-3 0  9993
2 46506  97.8749 186.8771 0002961 329.2480  30.8588 15.35030478317875
NETSAT-2                
1 46507U 20068X   26184.53678310  .00026161  00000+0  52421-3 0  9994
2 46507  97.8614 194.0527 0001376 295.5047  64.6059 15.46716085318269
TIANQI-6                
1 46810U 20076D   26185.02900738  .00004463  00000+0  29099-3 0  9993
2 46810  35.0000 305.0944 0010825 315.6413  44.3429 15.07299263311121
KSM1-C                  
1 46906U 20081B   26185.29261380  .00010675  00000+0  39609-3 0  9997
2 46906  36.8968 313.3196 0002874 342.6793  17.3858 15.27035335311784
KSM1-D                  
1 46907U 20081C   26185.31721794  .00009335  00000+0  36908-3 0  9991
2 46907  36.8982 322.5087 0003214  19.6305 340.4567 15.24978333311712
KSM1-A                  
1 46912U 20081H   26185.30468700  .00009633  00000+0  36658-3 0  9994
2 46912  36.8979 315.7683 0001953  81.6083 278.4888 15.26238205311793
R2                      
1 46913U 20081J   26184.74313618  .00009405  00000+0  36392-3 0  9991
2 46913  36.8982 319.3016 0006947  59.5144 300.6290 15.25678476314513
KSM1-B                  
1 46914U 20081K   26184.79920769  .00008444  00000+0  33648-3 0  9991
2 46914  36.9037 326.3438 0004582  48.0353 312.0786 15.24753852314721
GONETS-M 20             
1 47227U 20091A   26185.31284841  .00000037  00000+0  19285-3 0  9994
2 47227  82.5060 291.7908 0021866 141.5332 218.7311 12.42894122253203
GONETS-M 21             
1 47228U 20091B   26185.28679453  .00000049  00000+0  28488-3 0  9996
2 47228  82.4984 290.5035 0015515 154.3564 205.8288 12.42887318253196
GONETS-M 22             
1 47229U 20091C   26185.34031696  .00000142  00000+0  95482-3 0  9997
2 47229  82.5042 291.3768 0022792 137.0065 223.2801 12.42893701253158
CUBEL                   
1 47448U 21006AM  26185.10438352  .00027694  00000+0  65306-3 0  9994
2 47448  97.2315 235.5336 0007963 113.4734 246.7351 15.41837149302366
ARKTIKA-M 1             
1 47719U 21016A   26180.95192977 -.00000281  00000+0  00000+0 0  9994
2 47719  63.2520  55.7907 7292817 269.9910  14.5481  2.00617895 39040
STARLINK-2342           
1 47883U 21021Z   26185.33336806  .00155192  00000+0  56113-3 0  9991
2 47883  53.1522  61.7377 0005469 240.9899  96.6337 15.87655615  5958
GRUS-1B                 
1 47934U 21022C   26185.26805627  .00000978  00000+0  85811-4 0  9992
2 47934  97.5346  67.8991 0014727 260.6769  99.2789 14.98752210288450
UNISAT-7                
1 47945U 21022P   26184.98107572  .00017401  00000+0  42395-3 0  9994
2 47945  97.3871  90.0840 0009450  27.5972 332.5774 15.40933948292445
GLOBAL-9                
1 47971U 21023G   26184.39765814  .00020500  00000+0  40045-3 0  9992
2 47971  44.9793 159.3728 0002770  66.3383 293.7798 15.47184044297456
AII-BRAVO               
1 48270U 21034C   26185.12505497  .00004506  00000+0  33383-3 0  9993
2 48270  97.5596 239.6513 0005376 191.2441 168.8665 15.03602866282162
TYVAK-182A              
1 48271U 21034D   26184.60617214  .00004971  00000+0  34226-3 0  9990
2 48271  97.5709 243.2393 0004149 272.5235  87.5518 15.06316619282308
CSS (TIANHE)            
1 48274U 21035A   26184.22810215  .00007882  00000+0  10678-3 0  9997
2 48274  41.4672 224.3616 0002880 262.1202  97.9309 15.57904594296214
TYVAK-0130              
1 48606U 21041BF  26184.72784199  .00007854  00000+0  29762-3 0  9992
2 48606  52.9969 309.2580 0008787 217.5955 142.4430 15.27809177282914
HAIYANG-2D              
1 48621U 21043A   26185.28178104  .00000191  00000+0  24705-3 0  9995
2 48621  65.9987 262.1409 0011539 267.0952  92.8795 13.83373206258912
