OBJECT_NAME,OBJECT_ID,EPOCH,MEAN_MOTION,ECCENTRICITY,INCLINATION,RA_OF_ASC_NODE,ARG_OF_PERICENTER,MEAN_ANOMALY,EPHEMERIS_TYPE,CLASSIFICATION_TYPE,NORAD_CAT_ID,ELEMENT_SET_NO,REV_AT_EPOCH,BSTAR,MEAN_MOTION_DOT,MEAN_MOTION_DDOT
DEKART,2020-068H,2026-07-04T06:11:33.456768,15.37741848,.00080091,97.8739,195.7545,212.2490,147.8265,0,U,46493,999,31839,.43275693E-3,.15983E-3,0
NORBI,2020-068J,2026-07-04T06:40:31.313280,15.49199237,.00071533,97.8622,202.7572,178.5331,181.5941,0,U,46494,999,31885,.59913615E-3,.32665E-3,0
SALSAT,2020-068K,2026-07-03T22:54:35.117568,15.30040776,.00081593,97.8853,189.0427,236.6445,123.4014,0,U,46495,999,31792,.32069255E-3,.9251E-4,0
ICEYE-X6,2020-068M,2026-07-04T06:47:52.079424,15.04613739,.000808,98.0969,179.7729,42.4743,317.7106,0,U,46497,999,31580,.25037828E-3,.3451E-4,0
NETSAT-4,2020-068U,2026-07-03T07:49:01.523712,15.44406430,.00034531,97.8599,193.8687,246.2093,113.8792,0,U,46504,999,31826,.40376206E-3,.18584E-3,0
NETSAT-3,2020-068V,2026-07-03T12:55:50.236032,15.43255269,.00029167,97.8652,192.2952,273.1126,86.9786,0,U,46505,999,31820,.45942591E-3,.20356E-3,0
NETSAT-1,2020-068W,2026-07-03T22:56:31.028352,15.35030478,.00029611,97.8749,186.8771,329.2480,30.8588,0,U,46506,999,31787,.43401147E-3,.14676E-3,0
NETSAT-2,2020-068X,2026-07-03T12:52:58.059840,15.46716085,.00013761,97.8614,194.0527,295.5047,64.6059,0,U,46507,999,31826,.52420969E-3,.26161E-3,0
TIANQI-6,2020-076D,2026-07-04T00:41:46.237632,15.07299263,.00108257,35.0000,305.0944,315.6413,44.3429,0,U,46810,999,31112,.29099338E-3,.4463E-4,0
KSM1-C,2020-081B,2026-07-04T07:01:21.832320,15.27035335,.00028744,36.8968,313.3196,342.6793,17.3858,0,U,46906,999,31178,.39609011E-3,.10675E-3,0
KSM1-D,2020-081C,2026-07-04T07:36:47.630016,15.24978333,.00032142,36.8982,322.5087,19.6305,340.4567,0,U,46907,999,31171,.36908444E-3,.9335E-4,0
KSM1-A,2020-081H,2026-07-04T07:18:44.956800,15.26238205,.00019534,36.8979,315.7683,81.6083,278.4888,0,U,46912,999,31179,.3665839E-3,.9633E-4,0
R2,2020-081J,2026-07-03T17:50:06.965952,15.25678476,.00069476,36.8982,319.3016,59.5144,300.6290,0,U,46913,999,31451,.36391501E-3,.9405E-4,0
KSM1-B,2020-081K,2026-07-03T19:10:51.544416,15.24753852,.00045829,36.9037,326.3438,48.0353,312.0786,0,U,46914,999,31472,.33648366E-3,.8444E-4,0
GONETS-M 20,2020-091A,2026-07-04T07:30:30.102624,12.42894122,.0021866,82.5060,291.7908,141.5332,218.7311,0,U,47227,999,25320,.19285064E-3,.37E-6,0
GONETS-M 21,2020-091B,2026-07-04T06:52:59.047392,12.42887318,.00155154,82.4984,290.5035,154.3564,205.8288,0,U,47228,999,25319,.28487575E-3,.49E-6,0
GONETS-M 22,2020-091C,2026-07-04T08:10:03.385344,12.42893701,.0022792,82.5042,291.3768,137.0065,223.2801,0,U,47229,999,25315,.95481504E-3,.142E-5,0
CUBEL,2021-006AM,2026-07-04T02:30:18.736128,15.41837149,.00079637,97.2315,235.5336,113.4734,246.7351,0,U,47448,999,30236,.65306068E-3,.27694E-3,0
ARKTIKA-M 1,2021-016A,2026-06-29T22:50:46.732128,2.00617895,.72928178,63.2520,55.7907,269.9910,14.5481,0,U,47719,999,3904,0,-.281E-5,0
STARLINK-2342,2021-021Z,2026-07-04T08:00:03.000384,15.87655615,.00054692,53.1522,61.7377,240.9899,96.6337,0,U,47883,999,595,.56112656E-3,.155192E-2,0
GRUS-1B,2021-022C,2026-07-04T06:26:00.061728,14.98752210,.00147277,97.5346,67.8991,260.6769,99.2789,0,U,47934,999,28845,.85810682E-4,.978E-5,0
UNISAT-7,2021-022P,2026-07-03T23:32:44.942208,15.40933948,.00094505,97.3871,90.0840,27.5972,332.5774,0,U,47945,999,29244,.4239527E-3,.17401E-3,0
GLOBAL-9,2021-023G,2026-07-03T09:32:37.663296,15.47184044,.00027701,44.9793,159.3728,66.3383,293.7798,0,U,47971,999,29745,.40044626E-3,.205E-3,0
AII-BRAVO,2021-034C,2026-07-04T03:00:04.749408,15.03602866,.00053766,97.5596,239.6513,191.2441,168.8665,0,U,48270,999,28216,.33382821E-3,.4506E-4,0
TYVAK-182A,2021-034D,2026-07-03T14:32:53.272896,15.06316619,.00041494,97.5709,243.2393,272.5235,87.5518,0,U,48271,999,28230,.342261E-3,.4971E-4,0
CSS (TIANHE),2021-035A,2026-07-03T05:28:28.025760,15.57904594,.00028803,41.4672,224.3616,262.1202,97.9309,0,U,48274,999,29621,.10677817E-3,.7882E-4,0
TYVAK-0130,2021-041BF,2026-07-03T17:28:05.547936,15.27809177,.00087874,52.9969,309.2580,217.5955,142.4430,0,U,48606,999,28291,.29761554E-3,.7854E-4,0
HAIYANG-2D,2021-043A,2026-07-04T06:45:45.881856,13.83373206,.00115394,65.9987,262.1409,267.0952,92.8795,0,U,48621,999,25891,.24705267E-3,.191E-5,0
